NORAD_CAT_ID,OBJECT_NAME,OBJECT_TYPE,EPOCH,MEAN_MOTION,ECCENTRICITY,INCLINATION,RA_OF_ASC_NODE,ARG_OF_PERICENTER,MEAN_ANOMALY,BSTAR,MEAN_MOTION_DOT,MEAN_MOTION_DDOT,TLE_LINE0,TLE_LINE1,TLE_LINE2,SEMIMAJOR_AXIS,PERIOD,APOGEE,PERIGEE,DECAYED
53997.0,STARLINK-5130,PAYLOAD,2024-06-20 05:22:24,15.08828767,0.0001428,53.2172,141.153,96.1928,263.9227,0.00011458,1.536e-05,0.0,0 STARLINK-5130,1 53997U 22125AK  24172.22389998  .00001536  00000-0  11458-3 0  9998,2 53997  53.2172 141.1530 0001428  96.1928 263.9227 15.08828767 94871,6917.915,95.438,540.768,538.792,0.0
53997.0,STARLINK-5130,PAYLOAD,2024-06-20 21:16:16,15.08837421,0.000146,53.2177,138.1787,93.3839,266.732,6.9796e-05,8.23e-06,0.0,0 STARLINK-5130,1 53997U 22125AK  24172.88629757  .00000823  00000-0  69796-4 0  9997,2 53997  53.2177 138.1787 0001460  93.3839 266.7320 15.08837421 95044,6917.888,95.438,540.763,538.743,0.0
53997.0,STARLINK-5130,PAYLOAD,2024-06-21 06:48:35,15.08836974,0.000136,53.2172,136.3937,87.1088,273.006,3.4354e-05,2.59e-06,0.0,0 STARLINK-5130,1 53997U 22125AK  24173.28374027  .00000259  00000-0  34354-4 0  9994,2 53997  53.2172 136.3937 0001360  87.1088 273.0060 15.08836974 95035,6917.89,95.438,540.695,538.814,0.0
53997.0,STARLINK-5130,PAYLOAD,2024-06-21 21:07:03,15.08838414,0.0001371,53.2171,133.7177,86.2569,273.858,2.7198e-05,1.45e-06,0.0,0 STARLINK-5130,1 53997U 22125AK  24173.87990053  .00000145  00000-0  27198-4 0  9994,2 53997  53.2171 133.7177 0001371  86.2569 273.8580 15.08838414 95123,6917.885,95.438,540.699,538.802,0.0
53997.0,STARLINK-5130,PAYLOAD,2024-06-22 03:28:36,15.08837754,0.0001283,53.2165,132.5272,91.6165,268.4974,2.3843e-05,9.2e-07,0.0,0 STARLINK-5130,1 53997U 22125AK  24174.14486140  .00000092  00000-0  23843-4 0  9996,2 53997  53.2165 132.5272 0001283  91.6165 268.4974 15.08837754 95238,6917.887,95.438,540.64,538.865,0.0
53997.0,STARLINK-5130,PAYLOAD,2024-06-22 05:03:59,15.08838759,0.0001313,53.2166,132.2299,90.8289,269.2854,3.2368e-05,2.27e-06,0.0,0 STARLINK-5130,1 53997U 22125AK  24174.21110070  .00000227  00000-0  32368-4 0  9992,2 53997  53.2166 132.2299 0001313  90.8289 269.2854 15.08838759 95172,6917.884,95.438,540.658,538.841,0.0
53997.0,STARLINK-5130,PAYLOAD,2024-06-23 03:19:22,15.0884206,0.0001348,53.2165,128.067,88.7822,271.3324,7.7434e-05,9.45e-06,0.0,0 STARLINK-5130,1 53997U 22125AK  24175.13845726  .00000945  00000-0  77434-4 0  9997,2 53997  53.2165 128.0670 0001348  88.7822 271.3324 15.08842060 95316,6917.874,95.437,540.672,538.807,0.0
53997.0,STARLINK-5130,PAYLOAD,2024-06-23 20:48:37,15.08842103,0.000135,53.2161,124.7954,91.8894,268.2253,6.0103e-05,6.69e-06,0.0,0 STARLINK-5130,1 53997U 22125AK  24175.86709654  .00000669  00000-0  60103-4 0  9994,2 53997  53.2161 124.7954 0001350  91.8894 268.2253 15.08842103 95490,6917.874,95.437,540.673,538.805,0.0
53997.0,STARLINK-5130,PAYLOAD,2024-06-24 03:10:09,15.0884199,0.0001361,53.2163,123.6056,93.0325,267.0823,5.5817e-05,6.01e-06,0.0,0 STARLINK-5130,1 53997U 22125AK  24176.13205638  .00000601  00000-0  55817-4 0  9990,2 53997  53.2163 123.6056 0001361  93.0325 267.0823 15.08841990 95468,6917.874,95.437,540.681,538.798,0.0
53997.0,STARLINK-5130,PAYLOAD,2024-06-25 03:00:56,15.08838412,0.0001422,53.2169,119.1448,105.1886,254.9263,-2.1392e-05,-6.28e-06,0.0,0 STARLINK-5130,1 53997U 22125AK  24177.12565965 -.00000628  00000-0 -21392-4 0  9994,2 53997  53.2169 119.1448 0001422 105.1886 254.9263 15.08838412 95686,6917.885,95.438,540.734,538.767,0.0
53997.0,STARLINK-5130,PAYLOAD,2024-06-26 02:51:43,15.08839846,0.0001368,53.2169,114.6847,99.8094,260.3053,1.8771e-05,1.1e-07,0.0,0 STARLINK-5130,1 53997U 22125AK  24178.11925826  .00000011  00000-0  18771-4 0  9991,2 53997  53.2169 114.6847 0001368  99.8094 260.3053 15.08839846 95767,6917.881,95.438,540.692,538.799,0.0
53997.0,STARLINK-5130,PAYLOAD,2024-06-27 01:07:08,15.0883267,0.0001365,53.2171,110.5257,102.6729,257.4416,2.3404e-05,8.5e-07,0.0,0 STARLINK-5130,1 53997U 22125AK  24179.04662492  .00000085  00000-0  23404-4 0  9991,2 53997  53.2171 110.5257 0001365 102.6729 257.4416 15.08832670 95976,6917.903,95.438,540.712,538.824,0.0
53997.0,STARLINK-5130,PAYLOAD,2024-06-27 12:14:49,15.08835577,0.0001221,53.2161,108.4455,90.2913,269.8219,0.00021115,3.074e-05,0.0,0 STARLINK-5130,1 53997U 22125AK  24179.51030030  .00003074  00000-0  21115-3 0  9997,2 53997  53.2161 108.4455 0001221  90.2913 269.8219 15.08835577 96045,6917.894,95.438,540.604,538.914,0.0
53997.0,STARLINK-5130,PAYLOAD,2024-06-28 00:57:56,15.08829478,0.0001513,53.2169,106.0621,88.1313,271.9853,-2.4885e-05,-6.84e-06,0.0,0 STARLINK-5130,1 53997U 22125AK  24180.04023361 -.00000684  00000-0 -24885-4 0  9990,2 53997  53.2169 106.0621 0001513  88.1313 271.9853 15.08829478 96126,6917.913,95.438,540.824,538.731,0.0
53997.0,STARLINK-5130,PAYLOAD,2024-06-28 12:05:36,15.08855051,0.0001368,53.2174,103.9839,81.2698,278.8449,0.00019079,2.751e-05,0.0,0 STARLINK-5130,1 53997U 22125AK  24180.50389205  .00002751  00000-0  19079-3 0  9996,2 53997  53.2174 103.9839 0001368  81.2698 278.8449 15.08855051 96197,6917.834,95.437,540.646,538.753,0.0
53997.0,STARLINK-5130,PAYLOAD,2024-06-29 03:59:28,15.08840126,0.0001551,53.216,101.0092,80.2454,279.8713,8.4614e-05,1.059e-05,0.0,0 STARLINK-5130,1 53997U 22125AK  24181.16630701  .00001059  00000-0  84614-4 0  9997,2 53997  53.2160 101.0092 0001551  80.2454 279.8713 15.08840126 96298,6917.88,95.438,540.818,538.672,0.0
53997.0,STARLINK-5130,PAYLOAD,2024-06-29 11:56:23,15.08849815,0.000142,53.2168,99.5216,82.7759,277.3395,0.00013507,1.863e-05,0.0,0 STARLINK-5130,1 53997U 22125AK  24181.49749852  .00001863  00000-0  13507-3 0  9996,2 53997  53.2168  99.5216 0001420  82.7759 277.3395 15.08849815 96344,6917.85,95.437,540.698,538.733,0.0
53997.0,STARLINK-5130,PAYLOAD,2024-06-30 03:50:16,15.08828544,0.0001444,53.2167,96.5461,100.6856,259.4299,-6.9382e-05,-1.392e-05,0.0,0 STARLINK-5130,1 53997U 22125AK  24182.15991766 -.00001392  00000-0 -69382-4 0  9995,2 53997  53.2167  96.5461 0001444 100.6856 259.4299 15.08828544 96447,6917.915,95.438,540.779,538.781,0.0
53997.0,STARLINK-5130,PAYLOAD,2024-06-30 11:47:12,15.08831246,0.0001964,53.2188,95.0572,113.9451,246.1747,5.1169e-05,5.26e-06,0.0,0 STARLINK-5130,1 53997U 22125AK  24182.49111862  .00000526  00000-0  51169-4 0  9993,2 53997  53.2188  95.0572 0001964 113.9451 246.1747 15.08831246 96424,6917.907,95.438,541.131,538.413,0.0
53997.0,STARLINK-5130,PAYLOAD,2024-06-30 18:08:44,15.08843198,0.0001408,53.2163,93.8701,97.7921,262.3231,0.00015504,2.181e-05,0.0,0 STARLINK-5130,1 53997U 22125AK  24182.75607383  .00002181  00000-0  15504-3 0  9991,2 53997  53.2163  93.8701 0001408  97.7921 262.3231 15.08843198 96530,6917.871,95.437,540.71,538.762,0.0
53997.0,STARLINK-5130,PAYLOAD,2024-07-01 11:37:58,15.0886777,0.0001444,53.2145,90.5971,105.6834,254.4318,0.00084583,0.00013209,0.0,0 STARLINK-5130,1 53997U 22125AK  24183.48470789  .00013209  00000-0  84583-3 0  9996,2 53997  53.2145  90.5971 0001444 105.6834 254.4318 15.08867770 96647,6917.796,95.436,540.659,538.662,0.0
53997.0,STARLINK-5130,PAYLOAD,2024-07-01 21:10:17,15.0884703,0.0001379,53.2155,88.8152,94.9697,265.1452,4.6307e-05,4.49e-06,0.0,0 STARLINK-5130,1 53997U 22125AK  24183.88215019  .00000449  00000-0  46307-4 0  9998,2 53997  53.2155  88.8152 0001379  94.9697 265.1452 15.08847030 96637,6917.859,95.437,540.678,538.77,0.0
53997.0,STARLINK-5130,PAYLOAD,2024-07-02 03:31:50,15.08841948,0.0001304,53.2165,87.6265,81.4561,278.6579,0.0013373,0.0002106,0.0,0 STARLINK-5130,1 53997U 22125AK  24184.14711178  .00021060  00000-0  13373-2 0  9992,2 53997  53.2165  87.6265 0001304  81.4561 278.6579 15.08841948 96742,6917.874,95.437,540.642,538.837,0.0
53997.0,STARLINK-5130,PAYLOAD,2024-07-02 21:01:05,15.08844831,0.0001207,53.2156,84.3523,82.3406,277.7723,0.00089548,0.00013994,0.0,0 STARLINK-5130,1 53997U 22125AK  24184.87575464  .00013994  00000-0  89548-3 0  9993,2 53997  53.2156  84.3523 0001207  82.3406 277.7723 15.08844831 96850,6917.866,95.437,540.566,538.896,0.0
53997.0,STARLINK-5130,PAYLOAD,2024-07-02 22:36:28,15.08840757,0.0001241,53.2161,84.0552,81.9452,278.168,0.0004746,7.274e-05,0.0,0 STARLINK-5130,1 53997U 22125AK  24184.94199482  .00007274  00000-0  47460-3 0  9994,2 53997  53.2161  84.0552 0001241  81.9452 278.1680 15.08840757 96792,6917.878,95.438,540.602,538.885,0.0
53997.0,STARLINK-5130,PAYLOAD,2024-07-03 20:51:52,15.08837754,0.0002215,53.2178,79.8948,117.813,242.3087,4.031e-05,3.53e-06,0.0,0 STARLINK-5130,1 53997U 22125AK  24185.86935452  .00000353  00000-0  40310-4 0  9990,2 53997  53.2178  79.8948 0002215 117.8130 242.3087 15.08837754 97007,6917.887,95.438,541.285,538.22,0.0
53997.0,STARLINK-5130,PAYLOAD,2024-07-03 22:27:15,15.08835834,0.0002044,53.2175,79.5979,114.0587,246.0619,1.8124e-05,0.0,0.0,0 STARLINK-5130,1 53997U 22125AK  24185.93559558  .00000000  00000-0  18124-4 0  9994,2 53997  53.2175  79.5979 0002044 114.0587 246.0619 15.08835834 96941,6917.893,95.438,541.172,538.344,0.0
53997.0,STARLINK-5130,PAYLOAD,2024-07-04 09:34:56,15.08851159,0.0001404,53.2168,77.5176,92.7763,267.3389,0.00030347,4.547e-05,0.0,0 STARLINK-5130,1 53997U 22125AK  24186.39926976  .00004547  00000-0  30347-3 0  9997,2 53997  53.2168  77.5176 0001404  92.7763 267.3389 15.08851159 97081,6917.846,95.437,540.683,538.74,0.0
53997.0,STARLINK-5130,PAYLOAD,2024-07-04 20:42:39,15.08840514,0.0001528,53.218,75.4388,107.0346,253.0814,6.385e-05,7.28e-06,0.0,0 STARLINK-5130,1 53997U 22125AK  24186.86295365  .00000728  00000-0  63850-4 0  9993,2 53997  53.2180  75.4388 0001528 107.0346 253.0814 15.08840514 97157,6917.879,95.438,540.801,538.687,0.0
53997.0,STARLINK-5130,PAYLOAD,2024-07-04 22:18:02,15.0884152,0.0001299,53.2169,75.1408,100.7335,259.3804,0.00010024,1.308e-05,0.0,0 STARLINK-5130,1 53997U 22125AK  24186.92919351  .00001308  00000-0  10024-3 0  9997,2 53997  53.2169  75.1408 0001299 100.7335 259.3804 15.08841520 97096,6917.876,95.437,540.639,538.842,0.0
